0 FENGYUN 1C DEB
1 31250U 99025BMG 13285.87098620  .00001051  00000-0  77352-3 0  1014
2 31250 098.4172 080.0208 0146934 112.4468 249.2426 13.92495287335184
0 FENGYUN 1C DEB
1 31250U 99025BMG 13286.90701374  .00000900  00000-0  66563-3 0  1021
2 31250 098.4180 080.9644 0146919 109.6196 042.7982 13.92501549335323
0 FENGYUN 1C DEB
1 31250U 99025BMG 13289.39734675  .00001163  00000-0  85266-3 0  1031
2 31250 098.4185 083.2294 0146856 102.7364 286.8478 13.92507252335672
0 FENGYUN 1C DEB
1 31250U 99025BMG 13294.88319863  .00001283  00000-0  93822-3 0  1040
2 31250 098.4186 088.2197 0146435 087.5451 067.6362 13.92522242336438
